GLOBALSTAR M035         
1 25851U 99037A   25004.61840127 -.00000014  00000+0  18742-2 0  9998
2 25851  51.9968  59.7391 0013855  79.3554  91.8623 11.04535177 78187
GLOBALSTAR M032         
1 25852U 99037B   25004.42306924 -.00000059  00000+0  24741-3 0  9996
2 25852  51.9942 256.6712 0010006 254.3056 105.6640 11.19055225116455
GLOBALSTAR M051         
1 25853U 99037C   25004.58090336 -.00000061  00000+0  27617-3 0  9999
2 25853  51.9806  75.5720 0000679 238.4387 121.6357 11.42199944113696
GLOBALSTAR M043         
1 25874U 99041C   25004.53240562 -.00000033  00000+0  10513-2 0  9995
2 25874  51.9401 105.5177 0013142  36.9051  53.1615 11.25689385104441
GLOBALSTAR M028         
1 25875U 99041D   25004.38808370 -.00000087  00000+0  91599-4 0  9990
2 25875  51.9643 321.4837 0063767  75.5174 285.2751 12.50573556169682
